NORAD_CAT_ID,OBJECT_NAME,OBJECT_TYPE,EPOCH,MEAN_MOTION,ECCENTRICITY,INCLINATION,RA_OF_ASC_NODE,ARG_OF_PERICENTER,MEAN_ANOMALY,BSTAR,MEAN_MOTION_DOT,MEAN_MOTION_DDOT,TLE_LINE0,TLE_LINE1,TLE_LINE2,SEMIMAJOR_AXIS,PERIOD,APOGEE,PERIGEE,DECAYED
54767.0,STARLINK-5472,PAYLOAD,2023-06-29 02:58:02,15.08831266,0.0001198,53.2165,143.9634,91.06,269.0529,9.7542e-05,1.265e-05,0.0,0 STARLINK-5472,1 54767U 22175K   23180.12363577  .00001265  00000-0  97542-4 0  9999,2 54767  53.2165 143.9634 0001198  91.0600 269.0529 15.08831266 29125,6917.907,95.438,540.601,538.943,0.0
54767.0,STARLINK-5472,PAYLOAD,2023-07-01 01:04:14,15.08811997,0.0001382,53.2178,135.3423,108.6443,251.47,0.00020103,2.911e-05,0.0,0 STARLINK-5472,1 54767U 22175K   23182.04460762  .00002911  00000-0  20103-3 0  9993,2 54767  53.2178 135.3423 0001382 108.6443 251.4700 15.08811997 29412,6917.966,95.439,540.787,538.875,0.0
54767.0,STARLINK-5472,PAYLOAD,2023-07-01 05:50:23,15.088332,0.0001216,53.217,134.4474,83.7402,276.3728,-2.5614e-05,-6.95e-06,0.0,0 STARLINK-5472,1 54767U 22175K   23182.24332467 -.00000695  00000-0 -25614-4 0  9997,2 54767  53.2170 134.4474 0001216  83.7402 276.3728 15.08833200 29444,6917.901,95.438,540.607,538.925,0.0
54767.0,STARLINK-5472,PAYLOAD,2023-07-02 05:41:09,15.08842493,0.0001067,53.2163,129.989,85.8388,274.2726,5.9463e-05,6.59e-06,0.0,0 STARLINK-5472,1 54767U 22175K   23183.23691808  .00000659  00000-0  59463-4 0  9991,2 54767  53.2163 129.9890 0001067  85.8388 274.2726 15.08842493 29592,6917.873,95.437,540.476,539.0,0.0
54767.0,STARLINK-5472,PAYLOAD,2023-07-03 15:04:15,15.08836234,0.0001309,53.2162,123.7446,78.4174,281.6965,0.00013499,1.861e-05,0.0,0 STARLINK-5472,1 54767U 22175K   23184.62796220  .00001861  00000-0  13499-3 0  9993,2 54767  53.2162 123.7446 0001309  78.4174 281.6965 15.08836234 29807,6917.892,95.438,540.662,538.851,0.0
54767.0,STARLINK-5472,PAYLOAD,2023-07-04 14:55:04,15.08802975,0.0001333,53.2165,119.2843,96.7866,263.3278,0.00054637,8.409e-05,0.0,0 STARLINK-5472,1 54767U 22175K   23185.62157411  .00008409  00000-0  54637-3 0  9991,2 54767  53.2165 119.2843 0001333  96.7866 263.3278 15.08802975 29954,6917.994,95.44,540.781,538.936,0.0
54767.0,STARLINK-5472,PAYLOAD,2023-07-05 00:27:21,15.08837364,0.0001236,53.2166,117.4999,86.7104,273.403,1.6054e-05,-3.2e-07,0.0,0 STARLINK-5472,1 54767U 22175K   23186.01900414 -.00000032  00000-0  16054-4 0  9991,2 54767  53.2166 117.4999 0001236  86.7104 273.4030 15.08837364 30010,6917.888,95.438,540.608,538.898,0.0
54767.0,STARLINK-5472,PAYLOAD,2023-07-06 01:53:32,15.08835891,0.0001173,53.2166,112.7404,94.5746,265.5381,2.674e-05,1.38e-06,0.0,0 STARLINK-5472,1 54767U 22175K   23187.07884496  .00000138  00000-0  26740-4 0  9998,2 54767  53.2166 112.7404 0001173  94.5746 265.5381 15.08835891 30179,6917.893,95.438,540.569,538.946,0.0
54767.0,STARLINK-5472,PAYLOAD,2023-07-07 17:38:10,15.08836667,0.0001155,53.2151,105.3093,102.7052,257.407,6.2767e-05,7.11e-06,0.0,0 STARLINK-5472,1 54767U 22175K   23188.73484545  .00000711  00000-0  62767-4 0  9999,2 54767  53.2151 105.3093 0001155 102.7052 257.4070 15.08836667 30422,6917.891,95.438,540.555,538.957,0.0
54767.0,STARLINK-5472,PAYLOAD,2023-07-08 17:28:58,15.08834539,0.0001097,53.2168,100.8473,90.8692,269.2426,-6.4347e-05,-1.312e-05,0.0,0 STARLINK-5472,1 54767U 22175K   23189.72845460 -.00001312  00000-0 -64347-4 0  9992,2 54767  53.2168 100.8473 0001097  90.8692 269.2426 15.08834539 30572,6917.897,95.438,540.521,539.003,0.0
54767.0,STARLINK-5472,PAYLOAD,2023-07-09 03:01:16,15.08841098,7.23e-05,53.2169,99.0636,80.1053,280.002,4.5541e-06,-2.15e-06,0.0,0 STARLINK-5472,1 54767U 22175K   23190.12588934 -.00000215  00000-0  45541-5 0  9994,2 54767  53.2169  99.0636 0000723  80.1053 280.0020 15.08841098 30637,6917.877,95.437,540.242,539.242,0.0
54767.0,STARLINK-5472,PAYLOAD,2023-07-10 12:24:22,15.08835143,0.0001227,53.2161,92.8169,84.0582,276.055,4.8827e-05,4.89e-06,0.0,0 STARLINK-5472,1 54767U 22175K   23191.51693276  .00000489  00000-0  48827-4 0  9995,2 54767  53.2161  92.8169 0001227  84.0582 276.0550 15.08835143 30841,6917.895,95.438,540.609,538.911,0.0
54767.0,STARLINK-5472,PAYLOAD,2023-07-12 02:33:37,15.0885186,0.0001195,53.217,85.6807,95.4896,264.6232,4.2369e-05,3.87e-06,0.0,0 STARLINK-5472,1 54767U 22175K   23193.10668190  .00000387  00000-0  42369-4 0  9991,2 54767  53.2170  85.6807 0001195  95.4896 264.6232 15.08851860 31089,6917.844,95.437,540.536,538.882,0.0
54767.0,STARLINK-5472,PAYLOAD,2023-07-12 16:52:06,15.08835661,0.0001316,53.2167,83.0051,85.1039,275.0104,3.6328e-05,2.9e-06,0.0,0 STARLINK-5472,1 54767U 22175K   23193.70285224  .00000290  00000-0  36328-4 0  9991,2 54767  53.2167  83.0051 0001316  85.1039 275.0104 15.08835661 31173,6917.894,95.438,540.669,538.848,0.0
54767.0,STARLINK-5472,PAYLOAD,2023-07-14 02:15:12,15.0882982,0.0001062,53.2182,76.76,99.7983,260.3129,0.00015628,2.2e-05,0.0,0 STARLINK-5472,1 54767U 22175K   23195.09389289  .00002200  00000-0  15628-3 0  9993,2 54767  53.2182  76.7600 0001062  99.7983 260.3129 15.08829820 31383,6917.912,95.438,540.511,539.042,0.0
54767.0,STARLINK-5472,PAYLOAD,2023-07-15 00:30:35,15.0884358,0.0001092,53.217,72.5968,79.9878,280.1237,0.00010215,1.338e-05,0.0,0 STARLINK-5472,1 54767U 22175K   23196.02124835  .00001338  00000-0  10215-3 0  9999,2 54767  53.2170  72.5968 0001092  79.9878 280.1237 15.08843580 31522,6917.869,95.437,540.49,538.979,0.0
54767.0,STARLINK-5472,PAYLOAD,2023-07-15 22:46:00,15.08833788,0.0001182,53.2186,68.4373,97.5182,262.5944,1.3982e-06,-2.66e-06,0.0,0 STARLINK-5472,1 54767U 22175K   23196.94862012 -.00000266  00000-0  13982-5 0  9992,2 54767  53.2186  68.4373 0001182  97.5182 262.5944 15.08833788 31660,6917.899,95.438,540.582,538.947,0.0
54767.0,STARLINK-5472,PAYLOAD,2023-07-17 00:12:10,15.0884489,0.000101,53.2175,63.6767,84.2684,275.8423,1.4969e-05,-4.9e-07,0.0,0 STARLINK-5472,1 54767U 22175K   23198.00845505 -.00000049  00000-0  14969-4 0  9993,2 54767  53.2175  63.6767 0001010  84.2684 275.8423 15.08844890 31825,6917.865,95.437,540.429,539.032,0.0
54767.0,STARLINK-5472,PAYLOAD,2023-07-18 00:02:56,15.08850983,0.0001018,53.2175,59.2156,84.8382,275.2726,0.00015374,2.161e-05,0.0,0 STARLINK-5472,1 54767U 22175K   23199.00204602  .00002161  00000-0  15374-3 0  9997,2 54767  53.2175  59.2156 0001018  84.8382 275.2726 15.08850983 31973,6917.847,95.437,540.416,539.008,0.0
54767.0,STARLINK-5472,PAYLOAD,2023-07-18 17:32:12,15.08832414,0.0001061,53.2172,55.9444,77.7162,282.3949,1.0628e-05,-1.19e-06,0.0,0 STARLINK-5472,1 54767U 22175K   23199.73070387 -.00000119  00000-0  10628-4 0  9998,2 54767  53.2172  55.9444 0001061  77.7162 282.3949 15.08832414 32086,6917.904,95.438,540.503,539.035,0.0
54767.0,STARLINK-5472,PAYLOAD,2023-07-19 01:29:08,15.08840271,0.0001104,53.2171,54.4573,80.5326,279.5791,1.323e-06,-2.67e-06,0.0,0 STARLINK-5472,1 54767U 22175K   23200.06189985 -.00000267  00000-0  13230-5 0  9999,2 54767  53.2171  54.4573 0001104  80.5326 279.5791 15.08840271 32133,6917.88,95.438,540.508,538.981,0.0
54767.0,STARLINK-5472,PAYLOAD,2023-07-20 18:49:09,15.0883796,0.0001172,53.2181,46.7256,83.0255,277.0871,7.0946e-05,8.41e-06,0.0,0 STARLINK-5472,1 54767U 22175K   23201.78414055  .00000841  00000-0  70946-4 0  9991,2 54767  53.2181  46.7256 0001172  83.0255 277.0871 15.08837960 32391,6917.887,95.438,540.562,538.941,0.0
54767.0,STARLINK-5472,PAYLOAD,2023-07-23 21:32:17,15.08837032,0.0001001,53.2181,32.7509,94.8004,265.3102,1.4998e-06,-2.64e-06,0.0,0 STARLINK-5472,1 54767U 22175K   23204.89742727 -.00000264  00000-0  14998-5 0  9992,2 54767  53.2181  32.7509 0001001  94.8004 265.3102 15.08837032 35020,6917.889,95.438,540.447,539.062,0.0
54767.0,STARLINK-5472,PAYLOAD,2023-07-25 11:41:33,15.08831562,8.28e-05,53.2183,25.6155,68.2066,291.9014,4.828e-06,-2.11e-06,0.0,0 STARLINK-5472,1 54767U 22175K   23206.48719368 -.00000211  00000-0  48280-5 0  9997,2 54767  53.2183  25.6155 0000828  68.2066 291.9014 15.08831562 35264,6917.906,95.438,540.344,539.198,0.0
54767.0,STARLINK-5472,PAYLOAD,2023-07-25 19:38:28,15.08843578,9.84e-05,53.2186,24.1274,87.4024,272.7081,0.00012038,1.629e-05,0.0,0 STARLINK-5472,1 54767U 22175K   23206.81838399  .00001629  00000-0  12038-3 0  9993,2 54767  53.2186  24.1274 0000984  87.4024 272.7081 15.08843578 35310,6917.869,95.437,540.415,539.054,0.0
54767.0,STARLINK-5472,PAYLOAD,2023-07-26 19:29:15,15.08857464,0.0001543,53.2186,19.6664,77.2954,282.8211,-5.0115e-05,-1.086e-05,0.0,0 STARLINK-5472,1 54767U 22175K   23207.81198035 -.00001086  00000-0 -50115-4 0  9998,2 54767  53.2186  19.6664 0001543  77.2954 282.8211 15.08857464 35465,6917.827,95.436,540.759,538.625,0.0
54767.0,STARLINK-5472,PAYLOAD,2023-07-27 11:23:07,15.08835107,0.0001688,53.2175,16.6899,110.1654,249.952,8.2586e-05,1.026e-05,0.0,0 STARLINK-5472,1 54767U 22175K   23208.47438788  .00001026  00000-0  82586-4 0  9992,2 54767  53.2175  16.6899 0001688 110.1654 249.9520 15.08835107 33403,6917.895,95.438,540.928,538.593,0.0
54767.0,STARLINK-5472,PAYLOAD,2023-07-27 19:20:02,15.08837035,0.0001053,53.2185,15.2055,99.6637,260.4475,-1.3205e-05,-4.98e-06,0.0,0 STARLINK-5472,1 54767U 22175K   23208.80559021 -.00000498  00000-0 -13205-4 0  9999,2 54767  53.2185  15.2055 0001053  99.6637 260.4475 15.08837035 35615,6917.889,95.438,540.483,539.026,0.0
54767.0,STARLINK-5472,PAYLOAD,2023-07-28 12:49:17,15.08846772,0.000115,53.2184,11.935,96.2871,263.8252,-0.00014122,-2.535e-05,0.0,0 STARLINK-5472,1 54767U 22175K   23209.53423187 -.00002535  00000-0 -14122-3 0  9995,2 54767  53.2184  11.9350 0001150  96.2871 263.8252 15.08846772 35726,6917.86,95.437,540.52,538.929,0.0
54767.0,STARLINK-5472,PAYLOAD,2023-07-28 17:35:26,15.08860686,0.0001181,53.2184,11.0444,95.7636,264.3491,-0.00026161,-4.451e-05,0.0,0 STARLINK-5472,1 54767U 22175K   23209.73294621 -.00004451  00000-0 -26161-3 0  9991,2 54767  53.2184  11.0444 0001181  95.7636 264.3491 15.08860686 33592,6917.817,95.436,540.499,538.865,0.0
